KUIPER-00008            
1 63724U 25088A   26190.22222343 -.00000383  00000+0 -21251-4 0  9993
2 63724  51.9013 270.5907 0000797 131.8972 228.2058 14.79922969 66048
KUIPER-00009            
1 63725U 25088B   26190.23713091  .00001765  00000+0  26061-3 0  9996
2 63725  51.9032 288.1578 0000638  84.0838 276.0197 14.79916845 65795
KUIPER-00010            
1 63726U 25088C   26189.51856561 -.00000281  00000+0 -78636-5 0  9997
2 63726  51.9023 268.8065 0000593  99.2715 260.8315 14.79919427 65628
KUIPER-00011            
1 63727U 25088D   26189.54424690  .00000803  00000+0  13439-3 0  9991
2 63727  51.9007 276.2429 0000548  99.4073 260.6951 14.79924203 65652
KUIPER-00012            
1 63728U 25088E   26190.20195479  .00000462  00000+0  89674-4 0  9993
2 63728  51.9007 258.2680 0000644 104.1031 256.0003 14.79924396 65916
KUIPER-00013            
1 63729U 25088F   26190.26819559  .00000038  00000+0  33958-4 0  9995
2 63729  51.9006 290.4913 0000501 105.9578 254.1440 14.79915416 65579
KUIPER-00014            
1 63730U 25088G   26190.63959690  .00000875  00000+0  14380-3 0  9995
2 63730  51.9023 288.7947 0000591 105.2614 254.8413 14.79930487 65448
KUIPER-00015            
1 63731U 25088H   26190.32494067 -.00000084  00000+0  17926-4 0  9997
2 63731  51.9009 300.2500 0000501  95.4764 264.6256 14.79925565 65710
KUIPER-00016            
1 63732U 25088J   26190.50183977  .00001928  00000+0  28198-3 0  9992
2 63732  51.9000 291.9179 0000845  96.5159 263.5899 14.79912241 65382
KUIPER-00018            
1 63733U 25088K   26190.27627754  .00000690  00000+0  11947-3 0  9992
2 63733  51.9028 282.9449 0000603 103.4743 256.6286 14.79929839 65498
KUIPER-00019            
1 63734U 25088L   26190.23541178 -.00000602  00000+0 -49959-4 0  9994
2 63734  51.8999 281.8829 0000652 301.7008  58.3890 14.79936383 65508
KUIPER-00020            
1 63735U 25088M   26190.27347795 -.00002682  00000+0 -32244-3 0  9996
2 63735  51.9046 285.4599 0000096 179.6260 180.4703 14.79990472 65667
KUIPER-00021            
1 63736U 25088N   26190.30735032  .00000912  00000+0  14869-3 0  9991
2 63736  51.8959 285.2644 0000583 341.1571  18.9370 14.79922214 65508
KUIPER-00023            
1 63737U 25088P   26189.59551596  .00002169  00000+0  31333-3 0  9993
2 63737  51.9016 290.9040 0000545 110.8695 249.2326 14.79950588 65665
KUIPER-00024            
1 63738U 25088Q   26189.54155038  .00000696  00000+0  12031-3 0  9997
2 63738  51.9038 278.7414 0000677 101.5853 258.5185 14.79918973 65958
KUIPER-00025            
1 63739U 25088R   26190.24252188  .00000322  00000+0  71213-4 0  9995
2 63739  51.9035 283.1225 0000652  64.2863 295.8166 14.79914820 65810
