{"fetched_at":"2026-07-10T07:58:39.953Z","source":"https://celestrak.org/NORAD/elements/gp.php?GROUP=kuiper&FORMAT=JSON","constellation":"kuiper","records":[{"OBJECT_NAME":"KUIPER-00008","OBJECT_ID":"2025-088A","EPOCH":"2026-07-09T05:20:00.104352","CLASSIFICATION_TYPE":"U","MEAN_MOTION":14.79922969,"ECCENTRICITY":0.00007971,"INCLINATION":51.9013,"RA_OF_ASC_NODE":270.5907,"ARG_OF_PERICENTER":131.8972,"MEAN_ANOMALY":228.2058,"EPHEMERIS_TYPE":0,"NORAD_CAT_ID":63724,"ELEMENT_SET_NO":999,"REV_AT_EPOCH":6604,"BSTAR":-0.000021250526,"MEAN_MOTION_DOT":-0.00000383,"MEAN_MOTION_DDOT":0},{"OBJECT_NAME":"KUIPER-00009","OBJECT_ID":"2025-088B","EPOCH":"2026-07-09T05:41:28.110624","CLASSIFICATION_TYPE":"U","MEAN_MOTION":14.79916845,"ECCENTRICITY":0.00006382,"INCLINATION":51.9032,"RA_OF_ASC_NODE":288.1578,"ARG_OF_PERICENTER":84.0838,"MEAN_ANOMALY":276.0197,"EPHEMERIS_TYPE":0,"NORAD_CAT_ID":63725,"ELEMENT_SET_NO":999,"REV_AT_EPOCH":6579,"BSTAR":0.00026060955,"MEAN_MOTION_DOT":0.00001765,"MEAN_MOTION_DDOT":0},{"OBJECT_NAME":"KUIPER-00010","OBJECT_ID":"2025-088C","EPOCH":"2026-07-08T12:26:44.068704","CLASSIFICATION_TYPE":"U","MEAN_MOTION":14.79919427,"ECCENTRICITY":0.00005938,"INCLINATION":51.9023,"RA_OF_ASC_NODE":268.8065,"ARG_OF_PERICENTER":99.2715,"MEAN_ANOMALY":260.8315,"EPHEMERIS_TYPE":0,"NORAD_CAT_ID":63726,"ELEMENT_SET_NO":999,"REV_AT_EPOCH":6562,"BSTAR":-0.000007863571,"MEAN_MOTION_DOT":-0.00000281,"MEAN_MOTION_DDOT":0},{"OBJECT_NAME":"KUIPER-00011","OBJECT_ID":"2025-088D","EPOCH":"2026-07-08T13:03:42.932160","CLASSIFICATION_TYPE":"U","MEAN_MOTION":14.79924203,"ECCENTRICITY":0.0000548,"INCLINATION":51.9007,"RA_OF_ASC_NODE":276.2429,"ARG_OF_PERICENTER":99.4073,"MEAN_ANOMALY":260.6951,"EPHEMERIS_TYPE":0,"NORAD_CAT_ID":63727,"ELEMENT_SET_NO":999,"REV_AT_EPOCH":6565,"BSTAR":0.00013438585,"MEAN_MOTION_DOT":0.00000803,"MEAN_MOTION_DDOT":0},{"OBJECT_NAME":"KUIPER-00012","OBJECT_ID":"2025-088E","EPOCH":"2026-07-09T04:50:48.893856","CLASSIFICATION_TYPE":"U","MEAN_MOTION":14.79924396,"ECCENTRICITY":0.0000644,"INCLINATION":51.9007,"RA_OF_ASC_NODE":258.268,"ARG_OF_PERICENTER":104.1031,"MEAN_ANOMALY":256.0003,"EPHEMERIS_TYPE":0,"NORAD_CAT_ID":63728,"ELEMENT_SET_NO":999,"REV_AT_EPOCH":6591,"BSTAR":0.000089674343,"MEAN_MOTION_DOT":0.00000462,"MEAN_MOTION_DDOT":0},{"OBJECT_NAME":"KUIPER-00013","OBJECT_ID":"2025-088F","EPOCH":"2026-07-09T06:26:12.098976","CLASSIFICATION_TYPE":"U","MEAN_MOTION":14.79915416,"ECCENTRICITY":0.00005013,"INCLINATION":51.9006,"RA_OF_ASC_NODE":290.4913,"ARG_OF_PERICENTER":105.9578,"MEAN_ANOMALY":254.144,"EPHEMERIS_TYPE":0,"NORAD_CAT_ID":63729,"ELEMENT_SET_NO":999,"REV_AT_EPOCH":6557,"BSTAR":0.000033957521,"MEAN_MOTION_DOT":3.8e-7,"MEAN_MOTION_DDOT":0},{"OBJECT_NAME":"KUIPER-00014","OBJECT_ID":"2025-088G","EPOCH":"2026-07-09T15:21:01.172160","CLASSIFICATION_TYPE":"U","MEAN_MOTION":14.79930487,"ECCENTRICITY":0.0000591,"INCLINATION":51.9023,"RA_OF_ASC_NODE":288.7947,"ARG_OF_PERICENTER":105.2614,"MEAN_ANOMALY":254.8413,"EPHEMERIS_TYPE":0,"NORAD_CAT_ID":63730,"ELEMENT_SET_NO":999,"REV_AT_EPOCH":6544,"BSTAR":0.0001438,"MEAN_MOTION_DOT":0.00000875,"MEAN_MOTION_DDOT":0},{"OBJECT_NAME":"KUIPER-00015","OBJECT_ID":"2025-088H","EPOCH":"2026-07-09T07:47:54.873888","CLASSIFICATION_TYPE":"U","MEAN_MOTION":14.79925565,"ECCENTRICITY":0.00005013,"INCLINATION":51.9009,"RA_OF_ASC_NODE":300.25,"ARG_OF_PERICENTER":95.4764,"MEAN_ANOMALY":264.6256,"EPHEMERIS_TYPE":0,"NORAD_CAT_ID":63731,"ELEMENT_SET_NO":999,"REV_AT_EPOCH":6571,"BSTAR":0.00001792555,"MEAN_MOTION_DOT":-8.4e-7,"MEAN_MOTION_DDOT":0},{"OBJECT_NAME":"KUIPER-00016","OBJECT_ID":"2025-088J","EPOCH":"2026-07-09T12:02:38.956128","CLASSIFICATION_TYPE":"U","MEAN_MOTION":14.79912241,"ECCENTRICITY":0.0000845,"INCLINATION":51.9,"RA_OF_ASC_NODE":291.9179,"ARG_OF_PERICENTER":96.5159,"MEAN_ANOMALY":263.5899,"EPHEMERIS_TYPE":0,"NORAD_CAT_ID":63732,"ELEMENT_SET_NO":999,"REV_AT_EPOCH":6538,"BSTAR":0.00028198,"MEAN_MOTION_DOT":0.00001928,"MEAN_MOTION_DDOT":0},{"OBJECT_NAME":"KUIPER-00018","OBJECT_ID":"2025-088K","EPOCH":"2026-07-09T06:37:50.379456","CLASSIFICATION_TYPE":"U","MEAN_MOTION":14.79929839,"ECCENTRICITY":0.00006038,"INCLINATION":51.9028,"RA_OF_ASC_NODE":282.9449,"ARG_OF_PERICENTER":103.4743,"MEAN_ANOMALY":256.6286,"EPHEMERIS_TYPE":0,"NORAD_CAT_ID":63733,"ELEMENT_SET_NO":999,"REV_AT_EPOCH":6549,"BSTAR":0.00011946774,"MEAN_MOTION_DOT":0.0000069,"MEAN_MOTION_DDOT":0},{"OBJECT_NAME":"KUIPER-00019","OBJECT_ID":"2025-088L","EPOCH":"2026-07-09T05:38:59.577792","CLASSIFICATION_TYPE":"U","MEAN_MOTION":14.79936383,"ECCENTRICITY":0.00006525,"INCLINATION":51.8999,"RA_OF_ASC_NODE":281.8829,"ARG_OF_PERICENTER":301.7008,"MEAN_ANOMALY":58.389,"EPHEMERIS_TYPE":0,"NORAD_CAT_ID":63734,"ELEMENT_SET_NO":999,"REV_AT_EPOCH":6550,"BSTAR":-0.000049958798,"MEAN_MOTION_DOT":-0.00000602,"MEAN_MOTION_DDOT":0},{"OBJECT_NAME":"KUIPER-00020","OBJECT_ID":"2025-088M","EPOCH":"2026-07-09T06:33:48.494880","CLASSIFICATION_TYPE":"U","MEAN_MOTION":14.79990472,"ECCENTRICITY":0.00000967,"INCLINATION":51.9046,"RA_OF_ASC_NODE":285.4599,"ARG_OF_PERICENTER":179.626,"MEAN_ANOMALY":180.4703,"EPHEMERIS_TYPE":0,"NORAD_CAT_ID":63735,"ELEMENT_SET_NO":999,"REV_AT_EPOCH":6566,"BSTAR":-0.00032244456,"MEAN_MOTION_DOT":-0.00002682,"MEAN_MOTION_DDOT":0},{"OBJECT_NAME":"KUIPER-00021","OBJECT_ID":"2025-088N","EPOCH":"2026-07-09T07:22:35.067648","CLASSIFICATION_TYPE":"U","MEAN_MOTION":14.79922214,"ECCENTRICITY":0.00005836,"INCLINATION":51.8959,"RA_OF_ASC_NODE":285.2644,"ARG_OF_PERICENTER":341.1571,"MEAN_ANOMALY":18.937,"EPHEMERIS_TYPE":0,"NORAD_CAT_ID":63736,"ELEMENT_SET_NO":999,"REV_AT_EPOCH":6550,"BSTAR":0.00014868667,"MEAN_MOTION_DOT":0.00000912,"MEAN_MOTION_DDOT":0},{"OBJECT_NAME":"KUIPER-00023","OBJECT_ID":"2025-088P","EPOCH":"2026-07-08T14:17:32.578944","CLASSIFICATION_TYPE":"U","MEAN_MOTION":14.79950588,"ECCENTRICITY":0.0000545,"INCLINATION":51.9016,"RA_OF_ASC_NODE":290.904,"ARG_OF_PERICENTER":110.8695,"MEAN_ANOMALY":249.2326,"EPHEMERIS_TYPE":0,"NORAD_CAT_ID":63737,"ELEMENT_SET_NO":999,"REV_AT_EPOCH":6566,"BSTAR":0.00031333317,"MEAN_MOTION_DOT":0.00002169,"MEAN_MOTION_DDOT":0},{"OBJECT_NAME":"KUIPER-00024","OBJECT_ID":"2025-088Q","EPOCH":"2026-07-08T12:59:49.952832","CLASSIFICATION_TYPE":"U","MEAN_MOTION":14.79918973,"ECCENTRICITY":0.00006778,"INCLINATION":51.9038,"RA_OF_ASC_NODE":278.7414,"ARG_OF_PERICENTER":101.5853,"MEAN_ANOMALY":258.5185,"EPHEMERIS_TYPE":0,"NORAD_CAT_ID":63738,"ELEMENT_SET_NO":999,"REV_AT_EPOCH":6595,"BSTAR":0.00012030648,"MEAN_MOTION_DOT":0.00000696,"MEAN_MOTION_DDOT":0},{"OBJECT_NAME":"KUIPER-00025","OBJECT_ID":"2025-088R","EPOCH":"2026-07-09T05:49:13.890432","CLASSIFICATION_TYPE":"U","MEAN_MOTION":14.7991482,"ECCENTRICITY":0.00006521,"INCLINATION":51.9035,"RA_OF_ASC_NODE":283.1225,"ARG_OF_PERICENTER":64.2863,"MEAN_ANOMALY":295.8166,"EPHEMERIS_TYPE":0,"NORAD_CAT_ID":63739,"ELEMENT_SET_NO":999,"REV_AT_EPOCH":6581,"BSTAR":0.000071212587,"MEAN_MOTION_DOT":0.00000322,"MEAN_MOTION_DDOT":0}]}
